STARLINK-31671          
1 59516U 24073F   26063.20188494  .00001741  00000+0  72749-4 0  9990
2 59516  43.0012 349.2394 0001556 251.2702 108.7981 15.27589506105332
STARLINK-31674          
1 59517U 24073G   26063.83135834 -.00001480  00000+0 -44287-4 0  9998
2 59517  43.0025 345.3671 0000901 232.1641 127.9130 15.27575104105434
STARLINK-31679          
1 59519U 24073J   26063.16994003  .00000337  00000+0  21775-4 0  9992
2 59519  43.0021 338.6160 0001189 277.7139  82.3577 15.27585988105458
STARLINK-31370          
1 59520U 24073K   26063.78781799 -.00006624  00000+0 -23127-3 0  9997
2 59520  42.9997 345.9075 0001296 301.5532  58.5193 15.27597511105429
STARLINK-31404          
1 59521U 24073L   26063.79808705 -.00001319  00000+0 -38423-4 0  9998
2 59521  42.9987 345.9772 0000861 273.7375  86.3378 15.27576495105427
STARLINK-31453          
1 59522U 24073M   26063.75933655  .00035298  00000+0  12852-2 0  9995
2 59522  42.9997 328.0853 0000914 268.4694  91.6053 15.27604577105629
STARLINK-31476          
1 59523U 24073N   26063.84935549  .00005603  00000+0  21324-3 0  9992
2 59523  43.0038 345.5018 0002416  34.1777 325.9230 15.27542720105434
STARLINK-31538          
1 59525U 24073Q   26063.82367556 -.00003172  00000+0 -10587-3 0  9999
2 59525  42.9971 345.3120 0000843 105.2044 254.8900 15.27558322105430
STARLINK-31564          
1 59526U 24073R   26063.81593416 -.00000664  00000+0 -14618-4 0  9998
2 59526  42.9977 345.2527 0000209  81.4881 278.5994 15.27578955105437
STARLINK-31452          
1 59527U 24073S   26063.20574835  .00002568  00000+0  10280-3 0  9999
2 59527  43.0002 349.2714 0000811 274.5619  85.5140 15.27582970105334
STARLINK-31513          
1 59529U 24073U   26063.79214634 -.00000699  00000+0 -15885-4 0  9995
2 59529  43.0020 342.4347 0001428 257.7878 102.2814 15.27569328105469
STARLINK-31392          
1 59530U 24073V   26063.77624755  .00000067  00000+0  11958-4 0  9998
2 59530  43.0033 345.8104 0000597 277.7536  82.3248 15.27580594105425
STARLINK-31619          
1 59531U 24073W   26063.82749513  .00000485  00000+0  27154-4 0  9994
2 59531  43.0021 345.3391 0000685 287.0666  73.0111 15.27576141106556
STARLINK-31509          
1 59533U 24073Y   26063.80194278  .00004859  00000+0  18593-3 0  9991
2 59533  42.9978 346.0194 0000398 335.0369  25.0463 15.27587067105422
STARLINK-31734          
1 59534U 24074A   26063.80777463 -.00001016  00000+0 -27418-4 0  9997
2 59534  43.0060   0.2025 0001583 264.3745  95.6926 15.27568589105399
STARLINK-31738          
1 59535U 24074B   26063.23629044  .00003578  00000+0  13945-3 0  9998
2 59535  43.0045  10.4939 0001151 301.6876  58.3863 15.27587088105224
