[{"OBJECT_NAME":"STARLINK-31671","OBJECT_ID":"2024-073F","EPOCH":"2026-03-04T04:50:42.858816","MEAN_MOTION":15.27589506,"ECCENTRICITY":0.00015567,"INCLINATION":43.0012,"RA_OF_ASC_NODE":349.2394,"ARG_OF_PERICENTER":251.2702,"MEAN_ANOMALY":108.7981,"EPHEMERIS_TYPE":0,"CLASSIFICATION_TYPE":"U","NORAD_CAT_ID":59516,"ELEMENT_SET_NO":999,"REV_AT_EPOCH":10533,"BSTAR":7.2748686e-5,"MEAN_MOTION_DOT":1.741e-5,"MEAN_MOTION_DDOT":0},{"OBJECT_NAME":"STARLINK-31674","OBJECT_ID":"2024-073G","EPOCH":"2026-03-04T19:57:09.360576","MEAN_MOTION":15.27575104,"ECCENTRICITY":9.01e-5,"INCLINATION":43.0025,"RA_OF_ASC_NODE":345.3671,"ARG_OF_PERICENTER":232.1641,"MEAN_ANOMALY":127.913,"EPHEMERIS_TYPE":0,"CLASSIFICATION_TYPE":"U","NORAD_CAT_ID":59517,"ELEMENT_SET_NO":999,"REV_AT_EPOCH":10543,"BSTAR":-4.4287e-5,"MEAN_MOTION_DOT":-1.48e-5,"MEAN_MOTION_DDOT":0},{"OBJECT_NAME":"STARLINK-31679","OBJECT_ID":"2024-073J","EPOCH":"2026-03-04T04:04:42.818592","MEAN_MOTION":15.27585988,"ECCENTRICITY":0.00011898,"INCLINATION":43.0021,"RA_OF_ASC_NODE":338.616,"ARG_OF_PERICENTER":277.7139,"MEAN_ANOMALY":82.3577,"EPHEMERIS_TYPE":0,"CLASSIFICATION_TYPE":"U","NORAD_CAT_ID":59519,"ELEMENT_SET_NO":999,"REV_AT_EPOCH":10545,"BSTAR":2.1774539e-5,"MEAN_MOTION_DOT":3.37e-6,"MEAN_MOTION_DDOT":0},{"OBJECT_NAME":"STARLINK-31370","OBJECT_ID":"2024-073K","EPOCH":"2026-03-04T18:54:27.474336","MEAN_MOTION":15.27597511,"ECCENTRICITY":0.0001296,"INCLINATION":42.9997,"RA_OF_ASC_NODE":345.9075,"ARG_OF_PERICENTER":301.5532,"MEAN_ANOMALY":58.5193,"EPHEMERIS_TYPE":0,"CLASSIFICATION_TYPE":"U","NORAD_CAT_ID":59520,"ELEMENT_SET_NO":999,"REV_AT_EPOCH":10542,"BSTAR":-0.00023127,"MEAN_MOTION_DOT":-6.624e-5,"MEAN_MOTION_DDOT":0},{"OBJECT_NAME":"STARLINK-31404","OBJECT_ID":"2024-073L","EPOCH":"2026-03-04T19:09:14.721120","MEAN_MOTION":15.27576495,"ECCENTRICITY":8.61e-5,"INCLINATION":42.9987,"RA_OF_ASC_NODE":345.9772,"ARG_OF_PERICENTER":273.7375,"MEAN_ANOMALY":86.3378,"EPHEMERIS_TYPE":0,"CLASSIFICATION_TYPE":"U","NORAD_CAT_ID":59521,"ELEMENT_SET_NO":999,"REV_AT_EPOCH":10542,"BSTAR":-3.8423e-5,"MEAN_MOTION_DOT":-1.319e-5,"MEAN_MOTION_DDOT":0},{"OBJECT_NAME":"STARLINK-31453","OBJECT_ID":"2024-073M","EPOCH":"2026-03-04T18:13:26.677920","MEAN_MOTION":15.27604577,"ECCENTRICITY":9.14e-5,"INCLINATION":42.9997,"RA_OF_ASC_NODE":328.0853,"ARG_OF_PERICENTER":268.4694,"MEAN_ANOMALY":91.6053,"EPHEMERIS_TYPE":0,"CLASSIFICATION_TYPE":"U","NORAD_CAT_ID":59522,"ELEMENT_SET_NO":999,"REV_AT_EPOCH":10562,"BSTAR":0.0012852,"MEAN_MOTION_DOT":0.00035298,"MEAN_MOTION_DDOT":0},{"OBJECT_NAME":"STARLINK-31476","OBJECT_ID":"2024-073N","EPOCH":"2026-03-04T20:23:04.314336","MEAN_MOTION":15.2754272,"ECCENTRICITY":0.0002416,"INCLINATION":43.0038,"RA_OF_ASC_NODE":345.5018,"ARG_OF_PERICENTER":34.1777,"MEAN_ANOMALY":325.923,"EPHEMERIS_TYPE":0,"CLASSIFICATION_TYPE":"U","NORAD_CAT_ID":59523,"ELEMENT_SET_NO":999,"REV_AT_EPOCH":10543,"BSTAR":0.00021324,"MEAN_MOTION_DOT":5.603e-5,"MEAN_MOTION_DDOT":0},{"OBJECT_NAME":"STARLINK-31538","OBJECT_ID":"2024-073Q","EPOCH":"2026-03-04T19:46:05.568384","MEAN_MOTION":15.27558322,"ECCENTRICITY":8.43e-5,"INCLINATION":42.9971,"RA_OF_ASC_NODE":345.312,"ARG_OF_PERICENTER":105.2044,"MEAN_ANOMALY":254.89,"EPHEMERIS_TYPE":0,"CLASSIFICATION_TYPE":"U","NORAD_CAT_ID":59525,"ELEMENT_SET_NO":999,"REV_AT_EPOCH":10543,"BSTAR":-0.00010587,"MEAN_MOTION_DOT":-3.172e-5,"MEAN_MOTION_DDOT":0},{"OBJECT_NAME":"STARLINK-31564","OBJECT_ID":"2024-073R","EPOCH":"2026-03-04T19:34:56.711424","MEAN_MOTION":15.27578955,"ECCENTRICITY":2.09e-5,"INCLINATION":42.9977,"RA_OF_ASC_NODE":345.2527,"ARG_OF_PERICENTER":81.4881,"MEAN_ANOMALY":278.5994,"EPHEMERIS_TYPE":0,"CLASSIFICATION_TYPE":"U","NORAD_CAT_ID":59526,"ELEMENT_SET_NO":999,"REV_AT_EPOCH":10543,"BSTAR":-1.4618e-5,"MEAN_MOTION_DOT":-6.64e-6,"MEAN_MOTION_DDOT":0},{"OBJECT_NAME":"STARLINK-31452","OBJECT_ID":"2024-073S","EPOCH":"2026-03-04T04:56:16.657440","MEAN_MOTION":15.2758297,"ECCENTRICITY":8.117e-5,"INCLINATION":43.0002,"RA_OF_ASC_NODE":349.2714,"ARG_OF_PERICENTER":274.5619,"MEAN_ANOMALY":85.514,"EPHEMERIS_TYPE":0,"CLASSIFICATION_TYPE":"U","NORAD_CAT_ID":59527,"ELEMENT_SET_NO":999,"REV_AT_EPOCH":10533,"BSTAR":0.00010279759,"MEAN_MOTION_DOT":2.568e-5,"MEAN_MOTION_DDOT":0},{"OBJECT_NAME":"STARLINK-31513","OBJECT_ID":"2024-073U","EPOCH":"2026-03-04T19:00:41.443776","MEAN_MOTION":15.27569328,"ECCENTRICITY":0.0001428,"INCLINATION":43.002,"RA_OF_ASC_NODE":342.4347,"ARG_OF_PERICENTER":257.7878,"MEAN_ANOMALY":102.2814,"EPHEMERIS_TYPE":0,"CLASSIFICATION_TYPE":"U","NORAD_CAT_ID":59529,"ELEMENT_SET_NO":999,"REV_AT_EPOCH":10546,"BSTAR":-1.5885e-5,"MEAN_MOTION_DOT":-6.99e-6,"MEAN_MOTION_DDOT":0},{"OBJECT_NAME":"STARLINK-31392","OBJECT_ID":"2024-073V","EPOCH":"2026-03-04T18:37:47.788320","MEAN_MOTION":15.27580594,"ECCENTRICITY":5.97e-5,"INCLINATION":43.0033,"RA_OF_ASC_NODE":345.8104,"ARG_OF_PERICENTER":277.7536,"MEAN_ANOMALY":82.3248,"EPHEMERIS_TYPE":0,"CLASSIFICATION_TYPE":"U","NORAD_CAT_ID":59530,"ELEMENT_SET_NO":999,"REV_AT_EPOCH":10542,"BSTAR":1.1958e-5,"MEAN_MOTION_DOT":6.7e-7,"MEAN_MOTION_DDOT":0},{"OBJECT_NAME":"STARLINK-31619","OBJECT_ID":"2024-073W","EPOCH":"2026-03-04T19:51:35.579232","MEAN_MOTION":15.27576141,"ECCENTRICITY":6.85e-5,"INCLINATION":43.0021,"RA_OF_ASC_NODE":345.3391,"ARG_OF_PERICENTER":287.0666,"MEAN_ANOMALY":73.0111,"EPHEMERIS_TYPE":0,"CLASSIFICATION_TYPE":"U","NORAD_CAT_ID":59531,"ELEMENT_SET_NO":999,"REV_AT_EPOCH":10655,"BSTAR":2.7154e-5,"MEAN_MOTION_DOT":4.85e-6,"MEAN_MOTION_DDOT":0},{"OBJECT_NAME":"STARLINK-31509","OBJECT_ID":"2024-073Y","EPOCH":"2026-03-04T19:14:47.856192","MEAN_MOTION":15.27587067,"ECCENTRICITY":3.98e-5,"INCLINATION":42.9978,"RA_OF_ASC_NODE":346.0194,"ARG_OF_PERICENTER":335.0369,"MEAN_ANOMALY":25.0463,"EPHEMERIS_TYPE":0,"CLASSIFICATION_TYPE":"U","NORAD_CAT_ID":59533,"ELEMENT_SET_NO":999,"REV_AT_EPOCH":10542,"BSTAR":0.00018593,"MEAN_MOTION_DOT":4.859e-5,"MEAN_MOTION_DDOT":0},{"OBJECT_NAME":"STARLINK-31734","OBJECT_ID":"2024-074A","EPOCH":"2026-03-04T19:23:11.728032","MEAN_MOTION":15.27568589,"ECCENTRICITY":0.0001583,"INCLINATION":43.006,"RA_OF_ASC_NODE":0.2025,"ARG_OF_PERICENTER":264.3745,"MEAN_ANOMALY":95.6926,"EPHEMERIS_TYPE":0,"CLASSIFICATION_TYPE":"U","NORAD_CAT_ID":59534,"ELEMENT_SET_NO":999,"REV_AT_EPOCH":10539,"BSTAR":-2.7418e-5,"MEAN_MOTION_DOT":-1.016e-5,"MEAN_MOTION_DDOT":0},{"OBJECT_NAME":"STARLINK-31738","OBJECT_ID":"2024-074B","EPOCH":"2026-03-04T05:40:15.494016","MEAN_MOTION":15.27587088,"ECCENTRICITY":0.00011514,"INCLINATION":43.0045,"RA_OF_ASC_NODE":10.4939,"ARG_OF_PERICENTER":301.6876,"MEAN_ANOMALY":58.3863,"EPHEMERIS_TYPE":0,"CLASSIFICATION_TYPE":"U","NORAD_CAT_ID":59535,"ELEMENT_SET_NO":999,"REV_AT_EPOCH":10522,"BSTAR":0.0001394464,"MEAN_MOTION_DOT":3.578e-5,"MEAN_MOTION_DDOT":0}]
